[{"OBJECT_NAME":"TRANSPORTER-10 OBJECT AG","OBJECT_ID":"2024-043AG","EPOCH":"2026-03-09T22:12:45.387648","MEAN_MOTION":15.30759727,"ECCENTRICITY":0.00093005,"INCLINATION":97.5471,"RA_OF_ASC_NODE":205.7101,"ARG_OF_PERICENTER":226.5958,"MEAN_ANOMALY":133.4509,"EPHEMERIS_TYPE":0,"CLASSIFICATION_TYPE":"U","NORAD_CAT_ID":59128,"ELEMENT_SET_NO":999,"REV_AT_EPOCH":11192,"BSTAR":0.00032170115,"MEAN_MOTION_DOT":9.498e-5,"MEAN_MOTION_DDOT":0},{"OBJECT_NAME":"STARLINK-36546","OBJECT_ID":"2026-008Q","EPOCH":"2026-03-09T11:11:12.558912","MEAN_MOTION":15.27603549,"ECCENTRICITY":0.00037746,"INCLINATION":43.0026,"RA_OF_ASC_NODE":206.8678,"ARG_OF_PERICENTER":299.9737,"MEAN_ANOMALY":60.074,"EPHEMERIS_TYPE":0,"CLASSIFICATION_TYPE":"U","NORAD_CAT_ID":67459,"ELEMENT_SET_NO":999,"REV_AT_EPOCH":953,"BSTAR":0.00087949749,"MEAN_MOTION_DOT":0.00024039,"MEAN_MOTION_DDOT":0}]
